{
  "type": "FeatureCollection",
  "features": [
    {
      "type": "Feature",
      "properties": {
        "norad_id": 33886,
        "name": "IRIDIUM 33 DEB",
        "group": "iridium-33-debris",
        "lat": 24.7874661535444,
        "lon": -113.07399244706761,
        "alt_km": 772.374911419859,
        "timestamp": "2025-12-09T11:33:55.185668+00:00",
        "meta_object_name": "IRIDIUM 33 DEB",
        "meta_object_id": "1997-051BF",
        "meta_epoch": "2025-12-09T04:26:46.394016",
        "meta_mean_motion": 14.36044861,
        "meta_eccentricity": 0.001213,
        "meta_inclination": 86.383,
        "meta_ra_of_asc_node": 68.7247,
        "meta_arg_of_pericenter": 255.409,
        "meta_mean_anomaly": 167.2504,
        "meta_ephemeris_type": 0,
        "meta_classification_type": "U",
        "meta_norad_cat_id": 33886,
        "meta_element_set_no": 999,
        "meta_rev_at_epoch": 88001,
        "meta_bstar": 0.00031056,
        "meta_mean_motion_dot": 9.23e-06,
        "meta_mean_motion_ddot": 0,
        "tle_line1": "1 33886U 97051BF  25343.18525919  .00000923  00000+0  31056-3 0  9998",
        "tle_line2": "2 33886  86.3830  68.7247 0012130 255.4090 167.2504 14.36044861880013"
      },
      "geometry": {
        "type": "Point",
        "coordinates": [
          -113.07399244706761,
          24.7874661535444
        ]
      }
    },
    {
      "type": "Feature",
      "properties": {
        "norad_id": 33887,
        "name": "IRIDIUM 33 DEB",
        "group": "iridium-33-debris",
        "lat": 77.17156698820587,
        "lon": 21.28378046507717,
        "alt_km": 763.4240058235418,
        "timestamp": "2025-12-09T11:33:55.185679+00:00",
        "meta_object_name": "IRIDIUM 33 DEB",
        "meta_object_id": "1997-051BG",
        "meta_epoch": "2025-12-09T03:09:21.273408",
        "meta_mean_motion": 14.37215839,
        "meta_eccentricity": 0.0004187,
        "meta_inclination": 86.3047,
        "meta_ra_of_asc_node": 4.9474,
        "meta_arg_of_pericenter": 243.0697,
        "meta_mean_anomaly": 182.8985,
        "meta_ephemeris_type": 0,
        "meta_classification_type": "U",
        "meta_norad_cat_id": 33887,
        "meta_element_set_no": 999,
        "meta_rev_at_epoch": 88113,
        "meta_bstar": 0.00021375,
        "meta_mean_motion_dot": 6.56e-06,
        "meta_mean_motion_ddot": 0,
        "tle_line1": "1 33887U 97051BG  25343.13149622  .00000656  00000+0  21375-3 0  9993",
        "tle_line2": "2 33887  86.3047   4.9474 0004187 243.0697 182.8985 14.37215839881133"
      },
      "geometry": {
        "type": "Point",
        "coordinates": [
          21.28378046507717,
          77.17156698820587
        ]
      }
    },
    {
      "type": "Feature",
      "properties": {
        "norad_id": 33953,
        "name": "IRIDIUM 33 DEB",
        "group": "iridium-33-debris",
        "lat": 80.6740292212944,
        "lon": 77.8412249382232,
        "alt_km": 689.9613489105732,
        "timestamp": "2025-12-09T11:33:55.185690+00:00",
        "meta_object_name": "IRIDIUM 33 DEB",
        "meta_object_id": "1997-051BN",
        "meta_epoch": "2025-12-09T04:52:48.423072",
        "meta_mean_motion": 14.55266937,
        "meta_eccentricity": 0.001847,
        "meta_inclination": 86.384,
        "meta_ra_of_asc_node": 55.3141,
        "meta_arg_of_pericenter": 113.5745,
        "meta_mean_anomaly": 309.5735,
        "meta_ephemeris_type": 0,
        "meta_classification_type": "U",
        "meta_norad_cat_id": 33953,
        "meta_element_set_no": 999,
        "meta_rev_at_epoch": 88252,
        "meta_bstar": 0.0014361,
        "meta_mean_motion_dot": 6.253e-05,
        "meta_mean_motion_ddot": 0,
        "tle_line1": "1 33953U 97051BN  25343.20333823  .00006253  00000+0  14361-2 0  9998",
        "tle_line2": "2 33953  86.3840  55.3141 0018470 113.5745 309.5735 14.55266937882524"
      },
      "geometry": {
        "type": "Point",
        "coordinates": [
          77.8412249382232,
          80.6740292212944
        ]
      }
    },
    {
      "type": "Feature",
      "properties": {
        "norad_id": 33960,
        "name": "IRIDIUM 33 DEB",
        "group": "iridium-33-debris",
        "lat": -76.79177697442901,
        "lon": 127.26110728727706,
        "alt_km": 626.3285478621519,
        "timestamp": "2025-12-09T11:33:55.185700+00:00",
        "meta_object_name": "IRIDIUM 33 DEB",
        "meta_object_id": "1997-051BV",
        "meta_epoch": "2025-12-08T21:44:18.324096",
        "meta_mean_motion": 14.84866979,
        "meta_eccentricity": 0.0007308,
        "meta_inclination": 86.2537,
        "meta_ra_of_asc_node": 291.3214,
        "meta_arg_of_pericenter": 67.9979,
        "meta_mean_anomaly": 351.6449,
        "meta_ephemeris_type": 0,
        "meta_classification_type": "U",
        "meta_norad_cat_id": 33960,
        "meta_element_set_no": 999,
        "meta_rev_at_epoch": 88810,
        "meta_bstar": 0.0037228,
        "meta_mean_motion_dot": 0.00031788,
        "meta_mean_motion_ddot": 0,
        "tle_line1": "1 33960U 97051BV  25342.90576764  .00031788  00000+0  37228-2 0  9993",
        "tle_line2": "2 33960  86.2537 291.3214 0007308  67.9979 351.6449 14.84866979888100"
      },
      "geometry": {
        "type": "Point",
        "coordinates": [
          127.26110728727706,
          -76.79177697442901
        ]
      }
    },
    {
      "type": "Feature",
      "properties": {
        "norad_id": 33966,
        "name": "IRIDIUM 33 DEB",
        "group": "iridium-33-debris",
        "lat": -84.18743219628509,
        "lon": 9.126341125051109,
        "alt_km": 733.2371917917244,
        "timestamp": "2025-12-09T11:33:55.185711+00:00",
        "meta_object_name": "IRIDIUM 33 DEB",
        "meta_object_id": "1997-051CB",
        "meta_epoch": "2025-12-09T03:49:18.183072",
        "meta_mean_motion": 14.49570047,
        "meta_eccentricity": 0.0007004,
        "meta_inclination": 86.3923,
        "meta_ra_of_asc_node": 47.5638,
        "meta_arg_of_pericenter": 200.3516,
        "meta_mean_anomaly": 191.4821,
        "meta_ephemeris_type": 0,
        "meta_classification_type": "U",
        "meta_norad_cat_id": 33966,
        "meta_element_set_no": 999,
        "meta_rev_at_epoch": 88390,
        "meta_bstar": 0.00069086,
        "meta_mean_motion_dot": 2.67e-05,
        "meta_mean_motion_ddot": 0,
        "tle_line1": "1 33966U 97051CB  25343.15923823  .00002670  00000+0  69086-3 0  9995",
        "tle_line2": "2 33966  86.3923  47.5638 0007004 200.3516 191.4821 14.49570047883906"
      },
      "geometry": {
        "type": "Point",
        "coordinates": [
          9.126341125051109,
          -84.18743219628509
        ]
      }
    },
    {
      "type": "Feature",
      "properties": {
        "norad_id": 34071,
        "name": "IRIDIUM 33 DEB",
        "group": "iridium-33-debris",
        "lat": -17.76547562758159,
        "lon": 18.071010674110546,
        "alt_km": 737.3578039656868,
        "timestamp": "2025-12-09T11:33:55.185722+00:00",
        "meta_object_name": "IRIDIUM 33 DEB",
        "meta_object_id": "1997-051CE",
        "meta_epoch": "2025-12-09T03:21:46.783584",
        "meta_mean_motion": 14.49438842,
        "meta_eccentricity": 0.0009805,
        "meta_inclination": 86.3456,
        "meta_ra_of_asc_node": 19.3928,
        "meta_arg_of_pericenter": 117.2084,
        "meta_mean_anomaly": 243.0121,
        "meta_ephemeris_type": 0,
        "meta_classification_type": "U",
        "meta_norad_cat_id": 34071,
        "meta_element_set_no": 999,
        "meta_rev_at_epoch": 88282,
        "meta_bstar": 0.00075639,
        "meta_mean_motion_dot": 2.915e-05,
        "meta_mean_motion_ddot": 0,
        "tle_line1": "1 34071U 97051CE  25343.14012481  .00002915  00000+0  75639-3 0  9994",
        "tle_line2": "2 34071  86.3456  19.3928 0009805 117.2084 243.0121 14.49438842882824"
      },
      "geometry": {
        "type": "Point",
        "coordinates": [
          18.071010674110546,
          -17.76547562758159
        ]
      }
    },
    {
      "type": "Feature",
      "properties": {
        "norad_id": 34077,
        "name": "IRIDIUM 33 DEB",
        "group": "iridium-33-debris",
        "lat": 4.836476278348913,
        "lon": 53.24902592516539,
        "alt_km": 674.9337617058372,
        "timestamp": "2025-12-09T11:33:55.185732+00:00",
        "meta_object_name": "IRIDIUM 33 DEB",
        "meta_object_id": "1997-051CL",
        "meta_epoch": "2025-12-08T16:24:26.669664",
        "meta_mean_motion": 14.64746449,
        "meta_eccentricity": 0.00106018,
        "meta_inclination": 86.3858,
        "meta_ra_of_asc_node": 53.2941,
        "meta_arg_of_pericenter": 52.2833,
        "meta_mean_anomaly": 66.251,
        "meta_ephemeris_type": 0,
        "meta_classification_type": "U",
        "meta_norad_cat_id": 34077,
        "meta_element_set_no": 999,
        "meta_rev_at_epoch": 88273,
        "meta_bstar": 0.0022935855,
        "meta_mean_motion_dot": 0.00012259,
        "meta_mean_motion_ddot": 0,
        "tle_line1": "1 34077U 97051CL  25342.68364201  .00012259  00000+0  22936-2 0  9991",
        "tle_line2": "2 34077  86.3858  53.2941 0010601  52.2833  66.2510 14.64746449882733"
      },
      "geometry": {
        "type": "Point",
        "coordinates": [
          53.24902592516539,
          4.836476278348913
        ]
      }
    }
  ]
}